{
  "norad_id": 66509,
  "name": "STARLINK-35598",
  "history": [
    {
      "epoch": "2026-03-28T17:06:10.729152",
      "apogee_km": 483.84409951836096,
      "perigee_km": 482.23446756224166,
      "latitude_deg": -29.513418824829483,
      "longitude_deg": 179.31192127987742,
      "semi_major_axis_km": 6861.176283540301,
      "eccentricity": 0.0001173,
      "inclination_deg": 42.9972,
      "raan_deg": 243.656,
      "arg_perigee_deg": 285.017,
      "mean_anomaly_deg": 75.0551,
      "mean_motion_rev_day": 15.27583277
    }
  ]
}